EUTELSAT 21B            
1 38992U 12062B   25221.18922204  .00000132  00000+0  00000+0 0  9996
2 38992   0.0690 350.0076 0003184 140.4993 277.1347  1.00269438 46694
EUTELSAT 70B            
1 39020U 12069A   25221.52220463 -.00000042  00000+0  00000+0 0  9993
2 39020   0.0645 351.4289 0003504 148.7648  76.5420  1.00271269 46386
EUTELSAT 117 WEST A     
1 39122U 13012A   25221.51861600 -.00000011  00000+0  00000+0 0  9994
2 39122   0.0205 330.8456 0002983 172.2573 245.0415  1.00271780 45303
EUTELSAT 7B             
1 39163U 13022A   25221.54322944  .00000050  00000+0  00000+0 0  9998
2 39163   0.0688 351.2497 0002431  68.0808 101.5009  1.00272804 44836
EXPRESS-AT1             
1 39612U 14010A   25221.76703605  .00000080  00000+0  00000+0 0  9999
2 39612   0.0162 115.7025 0000256 258.3707 276.5554  1.00271022 41923
EXPRESS-AT2             
1 39613U 14010B   25221.85508810 -.00000281  00000+0  00000+0 0  9995
2 39613   0.0151 114.1394 0000229 263.8185  28.3065  1.00267480 41760
EUTELSAT 3B             
1 39773U 14030A   25221.18549535  .00000022  00000+0  00000+0 0  9991
2 39773   0.0644 349.4288 0004342 151.7944 246.5756  1.00270616 40931
EUTELSAT 115 WEST B     
1 40425U 15010B   25222.16139612 -.00000024  00000+0  00000+0 0  9999
2 40425   0.0150 237.7379 0000292  59.2279 325.1093  1.00270753 38311
